{
  "norad_id": 65259,
  "name": "2025-180A",
  "history": [
    {
      "epoch": "2026-03-14T18:32:12.914880",
      "apogee_km": 513.4977725275967,
      "perigee_km": 497.2854106475461,
      "latitude_deg": -83.41148273037993,
      "longitude_deg": 156.0476831998676,
      "semi_major_axis_km": 6883.528591587571,
      "eccentricity": 0.00117762,
      "inclination_deg": 97.5045,
      "raan_deg": 202.7763,
      "arg_perigee_deg": 283.6763,
      "mean_anomaly_deg": 76.316,
      "mean_motion_rev_day": 15.2014873
    }
  ]
}